TROLL                   
1 62658U 25009BB  26068.22522958  .00013174  00000+0  48220-3 0  9994
2 62658  97.3932 150.7169 0001816  59.1850 300.9568 15.28164315118170
STARLINK-35440          
1 66345U 25253AC  26068.43054704  .00032754  00000+0  11926-2 0  9991
2 66345  42.9994 214.0675 0002321 285.2507  74.8088 15.27631730 20209
